OBJECT_NAME,OBJECT_ID,EPOCH,MEAN_MOTION,ECCENTRICITY,INCLINATION,RA_OF_ASC_NODE,ARG_OF_PERICENTER,MEAN_ANOMALY,EPHEMERIS_TYPE,CLASSIFICATION_TYPE,NORAD_CAT_ID,ELEMENT_SET_NO,REV_AT_EPOCH,BSTAR,MEAN_MOTION_DOT,MEAN_MOTION_DDOT
TDRS 3,1988-091B,2026-06-18T19:32:09.947328,1.00272689,.00383858,12.6003,340.9948,356.2566,174.0209,0,U,19548,999,12540,0,-.31E-5,0
FLTSATCOM 8 (USA 46),1989-077A,2026-06-18T22:04:21.978048,1.00276600,.0004306,12.4211,351.1536,56.7391,316.0722,0,U,20253,999,26058,0,-.378E-5,0
SKYNET 4C,1990-079A,2026-06-11T04:50:51.491040,1.00274127,.00024,13.3424,349.8525,96.2313,279.5534,0,U,20776,999,13083,0,.132E-5,0
TDRS 5,1991-054B,2026-06-19T04:39:38.706336,1.00275301,.00062927,14.0709,353.7671,275.3769,260.5223,0,U,21639,999,12773,0,.72E-6,0
TDRS 6,1993-003B,2026-06-19T01:41:58.778880,1.00270703,.00081443,14.1828,357.0449,178.3033,71.6319,0,U,22314,999,12242,0,-.307E-5,0
UFO 2 (USA 95),1993-056A,2026-06-18T04:30:14.848704,1.00277211,.0005679,11.8950,3.5495,8.5548,350.5951,0,U,22787,999,11855,0,.114E-5,0
USA 99 (MILSTAR-1 1),1994-009A,2026-06-18T07:46:58.549728,0.98723793,.0000943,17.6290,27.6955,224.6344,129.6308,0,U,22988,999,3295,0,-.215E-5,0
UFO 4 (USA 108),1995-003A,2026-06-18T20:35:00.342240,1.00271905,.0003043,9.6903,13.2238,70.2690,304.5255,0,U,23467,999,11497,0,-.33E-6,0
TDRS 7,1995-035B,2026-06-18T23:36:33.522912,1.00264006,.00109627,13.3764,348.1777,79.4988,282.4658,0,U,23613,999,11327,0,-.246E-5,0
USA 115 (MILSTAR-1 2),1995-060A,2026-06-19T01:11:47.137632,1.00364385,.00015421,14.0737,3.7377,137.3391,50.5465,0,U,23712,999,3290,0,-.207E-5,0
INMARSAT 3-F1,1996-020A,2026-06-19T03:51:32.639616,0.99978375,.00037809,10.6048,46.6165,54.6769,126.7309,0,U,23839,999,11027,0,-.116E-5,0
INMARSAT 3-F2,1996-053A,2026-06-18T13:28:31.771776,1.00002766,.0006657,9.8598,53.9229,31.2340,171.8212,0,U,24307,999,10893,0,-.279E-5,0
INMARSAT 3-F3,1996-070A,2026-06-18T20:43:05.479968,0.99983201,.00033131,10.3216,49.6375,27.1826,181.8229,0,U,24674,999,10792,0,.126E-5,0
AMC-3,1997-050A,2026-06-18T14:38:39.925248,0.99062357,.0004183,8.1688,63.9706,27.9610,258.0290,0,U,24936,999,5244,0,.5E-6,0
USA 134,1997-065A,2026-06-19T07:51:40.546368,1.00268909,.00033947,12.7871,21.7097,338.7065,272.7412,0,U,25019,999,3297,0,-.74E-6,0
INMARSAT 3-F5,1998-006B,2026-06-19T02:21:07.098048,1.00275064,.00048847,9.6979,53.2429,44.3372,150.9888,0,U,25153,999,10391,0,-.301E-5,0
ABS-6,1999-053A,2026-06-19T05:04:37.721280,1.00271035,.00035422,0.0172,304.5125,148.8631,49.2412,0,U,25924,999,9786,0,-.126E-5,0
UFO 10 (USA 146),1999-063A,2026-06-18T21:22:08.774112,1.00270585,.000154,9.9028,27.1838,60.3004,117.2369,0,U,25967,999,9736,0,-.199E-5,0
ASIASTAR,2000-016A,2026-06-18T16:20:04.809408,1.00268125,.0004546,9.1339,58.1396,29.6208,169.1507,0,U,26107,999,9593,0,-.343E-5,0
USA 149 (DSP 20),2000-024A,2026-06-19T06:27:12.299904,1.00275865,.00019775,13.1724,11.8408,313.7846,233.3081,0,U,26356,999,3293,0,.83E-6,0
TDRS 8,2000-034A,2026-06-18T15:06:16.467264,1.00266921,.0004468,12.6857,31.3096,19.7875,166.9142,0,U,26388,999,9519,0,-.204E-5,0
NSS-11,2000-059A,2026-06-19T04:55:38.821152,1.00271900,.00028623,2.1328,81.3669,356.6651,79.3049,0,U,26554,999,4131,0,.18E-6,0
USA 153,2000-065A,2026-06-18T13:19:21.661248,1.00269288,.0003026,11.6271,35.4114,47.4698,158.2304,0,U,26575,999,3294,0,-.336E-5,0
AMC-6,2000-067A,2026-06-19T01:58:04.805184,1.00269544,.00035005,0.1581,83.1086,12.7978,65.8920,0,U,26580,999,9391,0,.82E-6,0
USA 157 (MILSTAR-2 2),2001-009A,2026-06-18T10:59:37.048416,1.00275422,.0039261,11.5445,19.7599,177.5848,84.2144,0,U,26715,999,3295,0,.98E-6,0
INTELSAT 902 (IS-902),2001-039A,2026-06-19T04:35:07.471680,1.00271295,.00042995,6.1219,71.7594,13.2542,201.0871,0,U,26900,999,9071,0,-.292E-5,0
USA 164 (MILSTAR-2 3),2002-001A,2026-06-17T19:16:14.672640,1.00277966,.00990447,11.1806,21.9069,8.4150,183.8658,0,U,27168,999,3296,0,.88E-6,0
INTELSAT 904 (IS-904),2002-007A,2026-06-19T02:27:38.172960,1.00270224,.00065508,6.9257,69.1626,6.6050,196.9688,0,U,27380,999,5178,0,-.234E-5,0
DIRECTV 5 (TEMPO 1),2002-023A,2026-06-19T05:30:34.458336,1.00271779,.00031856,4.8840,75.2856,14.4504,150.2504,0,U,27426,999,8814,0,-.65E-6,0
INTELSAT 905 (IS-905),2002-027A,2026-06-19T07:47:01.724064,1.00272396,.00039197,6.7599,69.7758,22.6091,154.7037,0,U,27438,999,5138,0,.85E-6,0
GALAXY 3C (G-3C),2002-030A,2026-06-19T05:50:50.718912,1.00271423,.00016474,3.7383,77.9496,29.5101,152.8718,0,U,27445,999,4651,0,-.16E-5,0
