
ABS-6
1 25924U 99053A   26170.21154770 -.00000126  00000+0  00000+0 0  9999
2 25924   0.0172 304.5125 0003542 148.8631  49.2412  1.00271035 97860

AMC-3
1 24936U 97050A   26169.61018432  .00000050  00000+0  00000+0 0  9997
2 24936   8.1688  63.9706 0004183  27.9610 258.0290  0.99062357 52441

AMC-6
1 26580U 00067A   26170.08200006  .00000082  00000+0  00000+0 0  9994
2 26580   0.1581  83.1086 0003500  12.7978  65.8920  1.00269544 93919

ASIASTAR
1 26107U 00016A   26169.68061122 -.00000343  00000+0  00000+0 0  9992
2 26107   9.1339  58.1396 0004546  29.6208 169.1507  1.00268125 95931

DIRECTV 5 (TEMPO 1)
1 27426U 02023A   26170.22956549 -.00000065  00000+0  00000+0 0  9996
2 27426   4.8840  75.2856 0003185  14.4504 150.2504  1.00271779 88147

FLTSATCOM 8 (USA 46)
1 20253U 89077A   26169.91969882 -.00000378  00000+0  00000+0 0  9996
2 20253  12.4211 351.1536 0004306  56.7391 316.0722  1.00276600260587

GALAXY 3C (G-3C)
1 27445U 02030A   26170.24364258 -.00000160  00000+0  00000+0 0  9993
2 27445   3.7383  77.9496 0001647  29.5101 152.8718  1.00271423 46514

INMARSAT 3-F1
1 23839U 96020A   26170.16079444 -.00000116  00000+0  00000+0 0  9990
2 23839  10.6048  46.6165 0003780  54.6769 126.7309  0.99978375110275

INMARSAT 3-F2
1 24307U 96053A   26169.56147884 -.00000279  00000+0  00000+0 0  9993
2 24307   9.8598  53.9229 0006657  31.2340 171.8212  1.00002766108939

INMARSAT 3-F3
1 24674U 96070A   26169.86325787  .00000126  00000+0  00000+0 0  9992
2 24674  10.3216  49.6375 0003313  27.1826 181.8229  0.99983201107929

INMARSAT 3-F5
1 25153U 98006B   26170.09799882 -.00000301  00000+0  00000+0 0  9990
2 25153   9.6979  53.2429 0004884  44.3372 150.9888  1.00275064103918

INTELSAT 902 (IS-902)
1 26900U 01039A   26170.19105870 -.00000292  00000+0  00000+0 0  9999
2 26900   6.1219  71.7594 0004299  13.2542 201.0871  1.00271295 90715

INTELSAT 904 (IS-904)
1 27380U 02007A   26170.10252515 -.00000234  00000+0  00000+0 0  9994
2 27380   6.9257  69.1626 0006550   6.6050 196.9688  1.00270224 51780

INTELSAT 905 (IS-905)
1 27438U 02027A   26170.32432551  .00000085  00000+0  00000+0 0  9997
2 27438   6.7599  69.7758 0003919  22.6091 154.7037  1.00272396 51380

NSS-11
1 26554U 00059A   26170.20531043  .00000018  00000+0  00000+0 0  9997
2 26554   2.1328  81.3669 0002862 356.6651  79.3049  1.00271900 41314

SKYNET 4C
1 20776U 90079A   26162.20198485  .00000132  00000+0  00000+0 0  9995
2 20776  13.3424 349.8525 0002400  96.2313 279.5534  1.00274127130831

TDRS 3
1 19548U 88091B   26169.81400402 -.00000310  00000+0  00000+0 0  9999
2 19548  12.6003 340.9948 0038385 356.2566 174.0209  1.00272689125408

TDRS 5
1 21639U 91054B   26170.19419799  .00000072  00000+0  00000+0 0  9992
2 21639  14.0709 353.7671 0006292 275.3769 260.5223  1.00275301127733

TDRS 6
1 22314U 93003B   26170.07081920 -.00000307  00000+0  00000+0 0  9999
2 22314  14.1828 357.0449 0008144 178.3033  71.6319  1.00270703122420

TDRS 7
1 23613U 95035B   26169.98372133 -.00000246  00000+0  00000+0 0  9998
2 23613  13.3764 348.1777 0010962  79.4988 282.4658  1.00264006113279

TDRS 8
1 26388U 00034A   26169.62935726 -.00000204  00000+0  00000+0 0  9993
2 26388  12.6857  31.3096 0004468  19.7875 166.9142  1.00266921 95199

UFO 10 (USA 146)
1 25967U 99063A   26169.89037933 -.00000199  00000+0  00000+0 0  9990
2 25967   9.9028  27.1838 0001540  60.3004 117.2369  1.00270585 97363

UFO 2 (USA 95)
1 22787U 93056A   26169.18767186  .00000114  00000+0  00000+0 0  9991
2 22787  11.8950   3.5495 0005679   8.5548 350.5951  1.00277211118554

UFO 4 (USA 108)
1 23467U 95003A   26169.85764285 -.00000033  00000+0  00000+0 0  9993
2 23467   9.6903  13.2238 0003043  70.2690 304.5255  1.00271905114975

USA 115 (MILSTAR-1 2)
1 23712U 95060A   26170.04985113 -.00000207  00000+0  00000+0 0  9990
2 23712  14.0737   3.7377 0001542 137.3391  50.5465  1.00364385 32904

USA 134
1 25019U 97065A   26170.32755262 -.00000074  00000+0  00000+0 0  9992
2 25019  12.7871  21.7097 0003394 338.7065 272.7412  1.00268909 32973

USA 149 (DSP 20)
1 26356U 00024A   26170.26889236  .00000083  00000+0  00000+0 0  9997
2 26356  13.1724  11.8408 0001977 313.7846 233.3081  1.00275865 32931

USA 153
1 26575U 00065A   26169.55511182 -.00000336  00000+0  00000+0 0  9999
2 26575  11.6271  35.4114 0003026  47.4698 158.2304  1.00269288 32949

USA 157 (MILSTAR-2 2)
1 26715U 01009A   26169.45806769  .00000098  00000+0  00000+0 0  9995
2 26715  11.5445  19.7599 0039261 177.5848  84.2144  1.00275422 32959

USA 164 (MILSTAR-2 3)
1 27168U 02001A   26168.80294760  .00000088  00000+0  00000+0 0  9990
2 27168  11.1806  21.9069 0099044   8.4150 183.8658  1.00277966 32961

USA 99 (MILSTAR-1 1)
1 22988U 94009A   26169.32428877 -.00000215  00000+0  00000+0 0  9993
2 22988  17.6290  27.6955 0000943 224.6344 129.6308  0.98723793 32957
